{
  "norad_id": 66396,
  "name": "STARLINK-35669",
  "history": [
    {
      "epoch": "2026-04-15T05:59:58.826688Z",
      "apogee_km": 475.9866375677784,
      "perigee_km": 474.42681653550153,
      "latitude_deg": -3.211927481817031e-05,
      "longitude_deg": 113.60491038517509,
      "height_km": 476.0236056777334,
      "semi_major_axis_km": 6853.34372705164,
      "eccentricity": 0.0001138,
      "inclination_deg": 53.1605,
      "raan_deg": 47.0148,
      "arg_perigee_deg": 84.0057,
      "mean_anomaly_deg": 276.1073,
      "mean_motion_rev_day": 15.30202794
    },
    {
      "epoch": "2026-04-16T05:30:46.822176Z",
      "apogee_km": 476.1581353387528,
      "perigee_km": 474.23371945273993,
      "latitude_deg": -2.7078831640995734e-05,
      "longitude_deg": 115.38857664077406,
      "height_km": 476.03912948609263,
      "semi_major_axis_km": 6853.332927395746,
      "eccentricity": 0.0001404,
      "inclination_deg": 53.1601,
      "raan_deg": 42.4641,
      "arg_perigee_deg": 86.7405,
      "mean_anomaly_deg": 273.3756,
      "mean_motion_rev_day": 15.30206411
    },
    {
      "epoch": "2026-04-17T22:16:10.083072Z",
      "apogee_km": 476.3225899911895,
      "perigee_km": 474.092237585166,
      "latitude_deg": -3.479776485176048e-05,
      "longitude_deg": -145.51995537059858,
      "height_km": 476.35754944117167,
      "semi_major_axis_km": 6853.344413788177,
      "eccentricity": 0.00016272,
      "inclination_deg": 53.1613,
      "raan_deg": 34.5763,
      "arg_perigee_deg": 103.079,
      "mean_anomaly_deg": 257.0392,
      "mean_motion_rev_day": 15.30202564
    },
    {
      "epoch": "2026-04-18T12:22:38.589888Z",
      "apogee_km": 476.2862782738466,
      "perigee_km": 474.0490854934933,
      "latitude_deg": 5.7951101601166345e-05,
      "longitude_deg": -0.447456218034086,
      "height_km": 476.2074973191534,
      "semi_major_axis_km": 6853.30468188367,
      "eccentricity": 0.00016322,
      "inclination_deg": 53.1598,
      "raan_deg": 31.8469,
      "arg_perigee_deg": 97.3062,
      "mean_anomaly_deg": 262.8125,
      "mean_motion_rev_day": 15.30215871
    },
    {
      "epoch": "2026-04-19T11:53:26.335680Z",
      "apogee_km": 476.1853405527545,
      "perigee_km": 474.26694714152836,
      "latitude_deg": 3.139091747499824e-06,
      "longitude_deg": 1.338106130354764,
      "height_km": 476.1689064443581,
      "semi_major_axis_km": 6853.363143847141,
      "eccentricity": 0.00013996,
      "inclination_deg": 53.1617,
      "raan_deg": 27.2971,
      "arg_perigee_deg": 92.6701,
      "mean_anomaly_deg": 267.446,
      "mean_motion_rev_day": 15.30196291
    },
    {
      "epoch": "2026-04-20T11:24:14.681952Z",
      "apogee_km": 476.00696694421094,
      "perigee_km": 474.421923821923,
      "latitude_deg": 3.067880768560076e-05,
      "longitude_deg": 3.1176199253776358,
      "height_km": 476.42507535663367,
      "semi_major_axis_km": 6853.351445383067,
      "eccentricity": 0.00011564,
      "inclination_deg": 53.1612,
      "raan_deg": 22.7437,
      "arg_perigee_deg": 113.1959,
      "mean_anomaly_deg": 246.9164,
      "mean_motion_rev_day": 15.30200209
    },
    {
      "epoch": "2026-04-21T10:55:01.673472Z",
      "apogee_km": 476.0092520295566,
      "perigee_km": 474.19533665313065,
      "latitude_deg": -2.2017390931033028e-05,
      "longitude_deg": 4.909133534788395,
      "height_km": 476.04674577417876,
      "semi_major_axis_km": 6853.239294341343,
      "eccentricity": 0.00013234,
      "inclination_deg": 53.1652,
      "raan_deg": 18.1967,
      "arg_perigee_deg": 92.8991,
      "mean_anomaly_deg": 267.2161,
      "mean_motion_rev_day": 15.30237771
    },
    {
      "epoch": "2026-04-22T02:35:33.067968Z",
      "apogee_km": 475.3494363548034,
      "perigee_km": 475.1841322555265,
      "latitude_deg": -5.950943634063485e-06,
      "longitude_deg": 126.09946812879258,
      "height_km": 476.15470933078217,
      "semi_major_axis_km": 6853.403784305165,
      "eccentricity": 1.206e-05,
      "inclination_deg": 53.1625,
      "raan_deg": 15.1616,
      "arg_perigee_deg": 278.478,
      "mean_anomaly_deg": 81.6207,
      "mean_motion_rev_day": 15.3018268
    },
    {
      "epoch": "2026-04-23T03:40:25.979808Z",
      "apogee_km": 475.777148580687,
      "perigee_km": 474.7062396259471,
      "latitude_deg": -1.4118002260658724e-05,
      "longitude_deg": 103.99483856955266,
      "height_km": 475.96364404140655,
      "semi_major_axis_km": 6853.378694103317,
      "eccentricity": 7.813e-05,
      "inclination_deg": 53.1596,
      "raan_deg": 10.3075,
      "arg_perigee_deg": 70.7205,
      "mean_anomaly_deg": 289.388,
      "mean_motion_rev_day": 15.30191083
    },
    {
      "epoch": "2026-04-24T20:25:48.426816Z",
      "apogee_km": 475.77230868503284,
      "perigee_km": 474.5784616675355,
      "latitude_deg": -5.637096863517634e-05,
      "longitude_deg": -156.90632348995413,
      "height_km": 475.8913947473942,
      "semi_major_axis_km": 6853.312385176284,
      "eccentricity": 8.71e-05,
      "inclination_deg": 53.16,
      "raan_deg": 2.4237,
      "arg_perigee_deg": 72.1802,
      "mean_anomaly_deg": 287.9293,
      "mean_motion_rev_day": 15.30213291
    },
    {
      "epoch": "2026-04-25T19:56:26.259936Z",
      "apogee_km": 475.4529620425001,
      "perigee_km": 471.57081778147585,
      "latitude_deg": -3.1919640843294504e-05,
      "longitude_deg": -155.0877857592793,
      "height_km": 473.95228263207116,
      "semi_major_axis_km": 6851.648889911988,
      "eccentricity": 0.0002833,
      "inclination_deg": 53.1591,
      "raan_deg": 357.8654,
      "arg_perigee_deg": 76.424,
      "mean_anomaly_deg": 283.7076,
      "mean_motion_rev_day": 15.307706
    },
    {
      "epoch": "2026-04-26T22:00:00.999936Z",
      "apogee_km": 463.4978472397179,
      "perigee_km": 462.09860234883854,
      "latitude_deg": -43.032986554538,
      "longitude_deg": 31.955608980826025,
      "height_km": 477.88522544217625,
      "semi_major_axis_km": 6840.935224794278,
      "eccentricity": 0.00010227,
      "inclination_deg": 53.1599,
      "raan_deg": 352.8011,
      "arg_perigee_deg": 75.5406,
      "mean_anomaly_deg": 162.6171,
      "mean_motion_rev_day": 15.34368043
    },
    {
      "epoch": "2026-04-27T20:00:03.000384Z",
      "apogee_km": 463.53934237065005,
      "perigee_km": 461.8264010747698,
      "latitude_deg": -52.98002626273299,
      "longitude_deg": 93.7995206786214,
      "height_km": 481.9480335368605,
      "semi_major_axis_km": 6840.81987172271,
      "eccentricity": 0.0001252,
      "inclination_deg": 53.1599,
      "raan_deg": 348.5156,
      "arg_perigee_deg": 91.4124,
      "mean_anomaly_deg": 173.2179,
      "mean_motion_rev_day": 15.34406853
    },
    {
      "epoch": "2026-04-28T20:00:01.000224Z",
      "apogee_km": 463.50876483440334,
      "perigee_km": 461.9257911544755,
      "latitude_deg": 24.732706311962335,
      "longitude_deg": -152.89489222590402,
      "height_km": 463.2012832561053,
      "semi_major_axis_km": 6840.854277994439,
      "eccentricity": 0.0001157,
      "inclination_deg": 53.1603,
      "raan_deg": 343.8411,
      "arg_perigee_deg": 85.2954,
      "mean_anomaly_deg": 306.1435,
      "mean_motion_rev_day": 15.34395277
    },
    {
      "epoch": "2026-04-29T20:00:01.999008Z",
      "apogee_km": 463.45289134564246,
      "perigee_km": 461.99715590701544,
      "latitude_deg": 17.149014712771162,
      "longitude_deg": -11.921474935764628,
      "height_km": 462.7517865916368,
      "semi_major_axis_km": 6840.862023626329,
      "eccentricity": 0.0001064,
      "inclination_deg": 53.1605,
      "raan_deg": 339.1666,
      "arg_perigee_deg": 88.6389,
      "mean_anomaly_deg": 69.7645,
      "mean_motion_rev_day": 15.34392671
    },
    {
      "epoch": "2026-04-30T07:49:09.303168Z",
      "apogee_km": 463.5442387540634,
      "perigee_km": 461.8085875748757,
      "latitude_deg": 1.2448128304626914e-05,
      "longitude_deg": 1.2984850519722073,
      "height_km": 463.7818753542096,
      "semi_major_axis_km": 6840.813413164469,
      "eccentricity": 0.00012686,
      "inclination_deg": 53.1605,
      "raan_deg": 336.8614,
      "arg_perigee_deg": 103.7076,
      "mean_anomaly_deg": 256.4068,
      "mean_motion_rev_day": 15.34409026
    },
    {
      "epoch": "2026-05-02T06:43:02.026848Z",
      "apogee_km": 463.5278220462269,
      "perigee_km": 461.9448439569687,
      "latitude_deg": -8.830143266664908e-06,
      "longitude_deg": 6.768253364852266,
      "height_km": 463.6524914170328,
      "semi_major_axis_km": 6840.8733330015975,
      "eccentricity": 0.0001157,
      "inclination_deg": 53.1604,
      "raan_deg": 327.7269,
      "arg_perigee_deg": 91.1765,
      "mean_anomaly_deg": 268.937,
      "mean_motion_rev_day": 15.34388866
    },
    {
      "epoch": "2026-05-03T17:06:32.318784Z",
      "apogee_km": 463.303562491933,
      "perigee_km": 462.0544294910642,
      "latitude_deg": 3.734722943033807e-05,
      "longitude_deg": -157.21705127191916,
      "height_km": 463.6476597072855,
      "semi_major_axis_km": 6840.815995991498,
      "eccentricity": 9.13e-05,
      "inclination_deg": 53.1582,
      "raan_deg": 321.0302,
      "arg_perigee_deg": 96.3114,
      "mean_anomaly_deg": 263.7993,
      "mean_motion_rev_day": 15.34408157
    },
    {
      "epoch": "2026-05-04T18:07:16.561920Z",
      "apogee_km": 463.26130635309255,
      "perigee_km": 462.1667701869683,
      "latitude_deg": 2.8082033887564628e-06,
      "longitude_deg": -178.3016452080238,
      "height_km": 463.41660532450845,
      "semi_major_axis_km": 6840.85103827003,
      "eccentricity": 8e-05,
      "inclination_deg": 53.159,
      "raan_deg": 316.1572,
      "arg_perigee_deg": 68.8186,
      "mean_anomaly_deg": 291.2902,
      "mean_motion_rev_day": 15.34396367
    }
  ]
}